{
  "type": "FeatureCollection",
  "features": [
    {
      "type": "Feature",
      "properties": {
        "norad_id": 43719,
        "name": "HYSIS",
        "group": "resource",
        "lat": 77.85928615016623,
        "lon": -92.64048511120288,
        "alt_km": 625.5723212463799,
        "timestamp": "2025-12-09T11:33:54.458087+00:00",
        "meta_object_name": "HYSIS",
        "meta_object_id": "2018-096A",
        "meta_epoch": "2025-12-09T04:37:19.668000",
        "meta_mean_motion": 14.78629895,
        "meta_eccentricity": 0.0001471,
        "meta_inclination": 98.0096,
        "meta_ra_of_asc_node": 46.1874,
        "meta_arg_of_pericenter": 59.2425,
        "meta_mean_anomaly": 300.893,
        "meta_ephemeris_type": 0,
        "meta_classification_type": "U",
        "meta_norad_cat_id": 43719,
        "meta_element_set_no": 999,
        "meta_rev_at_epoch": 37934,
        "meta_bstar": 0.00031948,
        "meta_mean_motion_dot": 2.288e-05,
        "meta_mean_motion_ddot": 0,
        "tle_line1": "1 43719U 18096A   25343.19258875  .00002288  00000+0  31948-3 0  9997",
        "tle_line2": "2 43719  98.0096  46.1874 0001471  59.2425 300.8930 14.78629895379346"
      },
      "geometry": {
        "type": "Point",
        "coordinates": [
          -92.64048511120288,
          77.85928615016623
        ]
      }
    },
    {
      "type": "Feature",
      "properties": {
        "norad_id": 43783,
        "name": "KAZSTSAT",
        "group": "resource",
        "lat": 81.95513721643752,
        "lon": -93.2944865445854,
        "alt_km": 562.8789675557218,
        "timestamp": "2025-12-09T11:33:54.458097+00:00",
        "meta_object_name": "KAZSTSAT",
        "meta_object_id": "2018-099AB",
        "meta_epoch": "2025-12-09T01:32:30.411168",
        "meta_mean_motion": 14.99334862,
        "meta_eccentricity": 0.0006104,
        "meta_inclination": 97.4556,
        "meta_ra_of_asc_node": 18.407,
        "meta_arg_of_pericenter": 345.3373,
        "meta_mean_anomaly": 14.7673,
        "meta_ephemeris_type": 0,
        "meta_classification_type": "U",
        "meta_norad_cat_id": 43783,
        "meta_element_set_no": 999,
        "meta_rev_at_epoch": 38281,
        "meta_bstar": 0.00018724,
        "meta_mean_motion_dot": 2.233e-05,
        "meta_mean_motion_ddot": 0,
        "tle_line1": "1 43783U 18099AB  25343.06424087  .00002233  00000+0  18724-3 0  9994",
        "tle_line2": "2 43783  97.4556  18.4070 0006104 345.3373  14.7673 14.99334862382811"
      },
      "geometry": {
        "type": "Point",
        "coordinates": [
          -93.2944865445854,
          81.95513721643752
        ]
      }
    },
    {
      "type": "Feature",
      "properties": {
        "norad_id": 43831,
        "name": "SAUDISAT 5A",
        "group": "resource",
        "lat": -18.032490308533276,
        "lon": -138.66786961084713,
        "alt_km": 497.14566614744126,
        "timestamp": "2025-12-09T11:33:54.458107+00:00",
        "meta_object_name": "SAUDISAT 5A",
        "meta_object_id": "2018-102A",
        "meta_epoch": "2025-12-09T04:24:14.508864",
        "meta_mean_motion": 15.25587195,
        "meta_eccentricity": 0.0011822,
        "meta_inclination": 97.3352,
        "meta_ra_of_asc_node": 43.443,
        "meta_arg_of_pericenter": 87.1612,
        "meta_mean_anomaly": 273.0979,
        "meta_ephemeris_type": 0,
        "meta_classification_type": "U",
        "meta_norad_cat_id": 43831,
        "meta_element_set_no": 999,
        "meta_rev_at_epoch": 38668,
        "meta_bstar": 0.00031934,
        "meta_mean_motion_dot": 8.056e-05,
        "meta_mean_motion_ddot": 0,
        "tle_line1": "1 43831U 18102A   25343.18350126  .00008056  00000+0  31934-3 0  9995",
        "tle_line2": "2 43831  97.3352  43.4430 0011822  87.1612 273.0979 15.25587195386683"
      },
      "geometry": {
        "type": "Point",
        "coordinates": [
          -138.66786961084713,
          -18.032490308533276
        ]
      }
    },
    {
      "type": "Feature",
      "properties": {
        "norad_id": 43833,
        "name": "SAUDISAT 5B",
        "group": "resource",
        "lat": -65.11137825233614,
        "lon": -149.67380787504962,
        "alt_km": 503.15566386003684,
        "timestamp": "2025-12-09T11:33:54.458118+00:00",
        "meta_object_name": "SAUDISAT 5B",
        "meta_object_id": "2018-102C",
        "meta_epoch": "2025-12-09T04:11:43.526976",
        "meta_mean_motion": 15.25941588,
        "meta_eccentricity": 0.0012527,
        "meta_inclination": 97.3447,
        "meta_ra_of_asc_node": 46.1667,
        "meta_arg_of_pericenter": 89.5312,
        "meta_mean_anomaly": 270.7362,
        "meta_ephemeris_type": 0,
        "meta_classification_type": "U",
        "meta_norad_cat_id": 43833,
        "meta_element_set_no": 999,
        "meta_rev_at_epoch": 38679,
        "meta_bstar": 0.00029361,
        "meta_mean_motion_dot": 7.481e-05,
        "meta_mean_motion_ddot": 0,
        "tle_line1": "1 43833U 18102C   25343.17480934  .00007481  00000+0  29361-3 0  9999",
        "tle_line2": "2 43833  97.3447  46.1667 0012527  89.5312 270.7362 15.25941588386790"
      },
      "geometry": {
        "type": "Point",
        "coordinates": [
          -149.67380787504962,
          -65.11137825233614
        ]
      }
    },
    {
      "type": "Feature",
      "properties": {
        "norad_id": 44622,
        "name": "GAOFEN-10R",
        "group": "resource",
        "lat": -24.98807311785704,
        "lon": -65.25333226554464,
        "alt_km": 624.8381992900595,
        "timestamp": "2025-12-09T11:33:54.458128+00:00",
        "meta_object_name": "GAOFEN-10R",
        "meta_object_id": "2019-066A",
        "meta_epoch": "2025-12-09T03:34:50.936160",
        "meta_mean_motion": 14.82771823,
        "meta_eccentricity": 0.000804,
        "meta_inclination": 98.0276,
        "meta_ra_of_asc_node": 290.6415,
        "meta_arg_of_pericenter": 51.9297,
        "meta_mean_anomaly": 308.264,
        "meta_ephemeris_type": 0,
        "meta_classification_type": "U",
        "meta_norad_cat_id": 44622,
        "meta_element_set_no": 999,
        "meta_rev_at_epoch": 33421,
        "meta_bstar": 0.0003036,
        "meta_mean_motion_dot": 2.401e-05,
        "meta_mean_motion_ddot": 0,
        "tle_line1": "1 44622U 19066A   25343.14920065  .00002401  00000+0  30360-3 0  9995",
        "tle_line2": "2 44622  98.0276 290.6415 0008040  51.9297 308.2640 14.82771823334213"
      },
      "geometry": {
        "type": "Point",
        "coordinates": [
          -65.25333226554464,
          -24.98807311785704
        ]
      }
    },
    {
      "type": "Feature",
      "properties": {
        "norad_id": 44804,
        "name": "CARTOSAT-3",
        "group": "resource",
        "lat": 69.59381652693946,
        "lon": 22.48770270405161,
        "alt_km": 492.50910064933214,
        "timestamp": "2025-12-09T11:33:54.458138+00:00",
        "meta_object_name": "CARTOSAT-3",
        "meta_object_id": "2019-081A",
        "meta_epoch": "2025-12-09T04:55:54.204672",
        "meta_mean_motion": 15.19321445,
        "meta_eccentricity": 0.0013972,
        "meta_inclination": 97.4584,
        "meta_ra_of_asc_node": 42.8334,
        "meta_arg_of_pericenter": 98.034,
        "meta_mean_anomaly": 262.248,
        "meta_ephemeris_type": 0,
        "meta_classification_type": "U",
        "meta_norad_cat_id": 44804,
        "meta_element_set_no": 999,
        "meta_rev_at_epoch": 33462,
        "meta_bstar": 0.000178,
        "meta_mean_motion_dot": 3.699e-05,
        "meta_mean_motion_ddot": 0,
        "tle_line1": "1 44804U 19081A   25343.20548848  .00003699  00000+0  17800-3 0  9990",
        "tle_line2": "2 44804  97.4584  42.8334 0013972  98.0340 262.2480 15.19321445334626"
      },
      "geometry": {
        "type": "Point",
        "coordinates": [
          22.48770270405161,
          69.59381652693946
        ]
      }
    },
    {
      "type": "Feature",
      "properties": {
        "norad_id": 44819,
        "name": "GAOFEN-12 01",
        "group": "resource",
        "lat": -81.62331012194946,
        "lon": 101.03209470589128,
        "alt_km": 633.8049768890842,
        "timestamp": "2025-12-09T11:33:54.458148+00:00",
        "meta_object_name": "GAOFEN-12 01",
        "meta_object_id": "2019-082A",
        "meta_epoch": "2025-12-09T03:52:30.825696",
        "meta_mean_motion": 14.80650386,
        "meta_eccentricity": 0.0001197,
        "meta_inclination": 97.8127,
        "meta_ra_of_asc_node": 349.5364,
        "meta_arg_of_pericenter": 257.07,
        "meta_mean_anomaly": 103.0379,
        "meta_ephemeris_type": 0,
        "meta_classification_type": "U",
        "meta_norad_cat_id": 44819,
        "meta_element_set_no": 999,
        "meta_rev_at_epoch": 32597,
        "meta_bstar": 0.0001102,
        "meta_mean_motion_dot": 7.96e-06,
        "meta_mean_motion_ddot": 0,
        "tle_line1": "1 44819U 19082A   25343.16146789  .00000796  00000+0  11020-3 0  9993",
        "tle_line2": "2 44819  97.8127 349.5364 0001197 257.0700 103.0379 14.80650386325975"
      },
      "geometry": {
        "type": "Point",
        "coordinates": [
          101.03209470589128,
          -81.62331012194946
        ]
      }
    }
  ]
}